1 25639U 99009B   25254.08811277 -.00000035  00000+0  00000+0 0  9991
2 25639  11.8962  10.6100 0002550 170.2409 200.0446  1.00274504 48389
